LEMUR-2-STARLIGHT       
1 66783U 25276DY  26187.72667436  .00005295  00000+0  43740-3 0  9998
2 66783  97.5223 257.6975 0014691  71.9073 288.3749 14.99285417 33129
LEMUR-2-TARTIFLETTE     
1 66784U 25276DZ  26187.72500240  .00004212  00000+0  34914-3 0  9999
2 66784  97.5225 257.7037 0013730  79.6577 280.6194 14.99277169 33123
LEMUR-2-VUKASIN         
1 66785U 25276EA  26187.76888705  .00004091  00000+0  32922-3 0  9991
2 66785  97.5243 258.0885 0004393  79.4597 280.7122 15.00493817 33084
LEMUR-2-HOTSPUR-TOM     
1 66786U 25276EB  26187.71887010  .00004474  00000+0  37145-3 0  9992
2 66786  97.5216 257.6747 0013989  70.9230 289.3507 14.99183448 33050
LEMUR-2-MYRA            
1 66787U 25276EC  26187.73430867  .00004840  00000+0  38707-3 0  9991
2 66787  97.5208 257.9763 0018461  79.9717 280.3589 15.00524052 33146
LEMUR-2 FIKRETDENGIZ    
1 67363U 26004A   26186.95817127  .00004876  00000+0  53037-3 0  9995
2 67363  97.8024 185.2292 0010567  81.5698 278.6716 14.88472307 26078
TWILIGHT-1 OBJECT B     
1 67364U 26004B   26187.73071660  .00001910  00000+0  21511-3 0  9995
2 67364  97.8067 185.9957 0010157  70.0556 290.1754 14.87773913 26192
LEMUR-2-MARIO-SOUSA     
1 67365U 26004C   26187.47704209  .00004355  00000+0  47199-3 0  9995
2 67365  97.7998 185.7354 0010218  81.3584 278.8791 14.88679800 26160
LEMUR-2-SONNENBLUME     
1 67367U 26004E   26187.47834203  .00003099  00000+0  33971-3 0  9992
2 67367  97.7993 185.7134 0009745  82.4268 277.8056 14.88423791 26166
LEMUR-2-WOBLER          
1 67368U 26004F   26187.73789495  .00003601  00000+0  39153-3 0  9991
2 67368  97.8045 186.1106 0009922  73.5880 286.6427 14.88658210 26209
LEMUR-2-GRAM-E-SUE      
1 67370U 26004H   26187.79666513  .00002285  00000+0  25123-3 0  9994
2 67370  97.7979 186.0431 0008840  83.6049 276.6174 14.88563158 26219
LEMUR-2-KATIE           
1 67387U 26004AA  26187.83006344  .00003442  00000+0  36075-3 0  9991
2 67387  97.8046 186.5994 0004196  52.7515 307.4085 14.90202649 26231
LEMUR-2-HCS-BAZUS       
1 67388U 26004AB  26187.55995426  .00002560  00000+0  26968-3 0  9999
2 67388  97.8031 186.3120 0003631  53.0769 307.0781 14.90231624 26192
